{
"type": "FeatureCollection",
"name": "supermarket",
"crs": { "type": "name", "properties": { "name": "urn:ogc:def:crs:OGC:1.3:CRS84" } },
"features": [
{ "type": "Feature", "properties": { "full_id": "w165714007", "osm_id": "165714007", "osm_type": "way", "shop": "supermarket", "website": null, "phone": null, "opening_hours:covid19": null, "brand:wikipedia": null, "branch": null, "name:en": null, "name:el": null, "brand:en": null, "brand:el": null, "payment:debit_cards": null, "payment:credit_cards": null, "payment:cash": null, "operator": null, "opening_hours": null, "brand:wikidata": null, "brand": null, "addr:street": null, "addr:postcode": null, "addr:housenumber": null, "addr:city": null, "name": "Κρόνος", "building": "yes" }, "geometry": { "type": "MultiPolygon", "coordinates": [ [ [ [ 21.7309124, 38.195391 ], [ 21.7311485, 38.1954331 ], [ 21.7311592, 38.1953994 ], [ 21.7313952, 38.1954458 ], [ 21.7314382, 38.1953109 ], [ 21.7314033, 38.1953045 ], [ 21.7314435, 38.1951317 ], [ 21.731406, 38.1951211 ], [ 21.7314167, 38.1950579 ], [ 21.7311646, 38.1950073 ], [ 21.7311565, 38.1950284 ], [ 21.7310171, 38.1950031 ], [ 21.7309124, 38.195391 ] ] ] ] } },
{ "type": "Feature", "properties": { "full_id": "w165780237", "osm_id": "165780237", "osm_type": "way", "shop": "supermarket", "website": null, "phone": null, "opening_hours:covid19": null, "brand:wikipedia": null, "branch": null, "name:en": null, "name:el": null, "brand:en": null, "brand:el": null, "payment:debit_cards": null, "payment:credit_cards": null, "payment:cash": null, "operator": null, "opening_hours": null, "brand:wikidata": null, "brand": null, "addr:street": null, "addr:postcode": null, "addr:housenumber": null, "addr:city": null, "name": null, "building": null }, "geometry": { "type": "MultiPolygon", "coordinates": [ [ [ [ 21.7232791, 38.2253408 ], [ 21.7230143, 38.2253878 ], [ 21.7224894, 38.2255209 ], [ 21.7224613, 38.2255302 ], [ 21.7224534, 38.2255329 ], [ 21.7224464, 38.2255377 ], [ 21.7224402, 38.2255438 ], [ 21.7224335, 38.2255518 ], [ 21.7224264, 38.2255626 ], [ 21.722417, 38.2255848 ], [ 21.7224142, 38.2255944 ], [ 21.7224146, 38.2256022 ], [ 21.7224177, 38.2256102 ], [ 21.7225277, 38.2257503 ], [ 21.7225952, 38.2258534 ], [ 21.7226744, 38.2259793 ], [ 21.7228144, 38.226233 ], [ 21.7229248, 38.2264678 ], [ 21.7236475, 38.2262818 ], [ 21.7242894, 38.2261231 ], [ 21.7244067, 38.2258948 ], [ 21.7246284, 38.2257958 ], [ 21.7243092, 38.2252942 ], [ 21.7242417, 38.2252035 ], [ 21.7242289, 38.2251911 ], [ 21.7242175, 38.2251845 ], [ 21.7241955, 38.225179 ], [ 21.7232791, 38.2253408 ] ] ] ] } },
{ "type": "Feature", "properties": { "full_id": "w176516266", "osm_id": "176516266", "osm_type": "way", "shop": "supermarket", "website": null, "phone": null, "opening_hours:covid19": null, "brand:wikipedia": null, "branch": null, "name:en": null, "name:el": null, "brand:en": null, "brand:el": null, "payment:debit_cards": "yes", "payment:credit_cards": "yes", "payment:cash": "yes", "operator": "Lidl", "opening_hours": "Mo-Fr 07:00-21:00; Sa 07:00-20:00", "brand:wikidata": "Q151954", "brand": "Lidl", "addr:street": "Πατρών Κλάους", "addr:postcode": "26332", "addr:housenumber": "243", "addr:city": "Πάτρα", "name": "Lidl", "building": "yes" }, "geometry": { "type": "MultiPolygon", "coordinates": [ [ [ [ 21.7608869, 38.2097852 ], [ 21.7611393, 38.2099389 ], [ 21.7606345, 38.210452 ], [ 21.7603317, 38.2102669 ], [ 21.7604652, 38.2101353 ], [ 21.7605173, 38.2101664 ], [ 21.7608869, 38.2097852 ] ] ] ] } },
{ "type": "Feature", "properties": { "full_id": "w504524333", "osm_id": "504524333", "osm_type": "way", "shop": "supermarket", "website": null, "phone": null, "opening_hours:covid19": null, "brand:wikipedia": null, "branch": null, "name:en": "Sklavenitis", "name:el": "Σκλαβενίτης", "brand:en": "Sklavenitis", "brand:el": "Σκλαβενίτης", "payment:debit_cards": null, "payment:credit_cards": null, "payment:cash": null, "operator": null, "opening_hours": null, "brand:wikidata": "Q7536037", "brand": "Σκλαβενίτης", "addr:street": "Παρνασσού", "addr:postcode": null, "addr:housenumber": "16", "addr:city": "Πάτρα", "name": "Σκλαβενίτης", "building": "yes" }, "geometry": { "type": "MultiPolygon", "coordinates": [ [ [ [ 21.7276674, 38.2325984 ], [ 21.728142, 38.2326284 ], [ 21.7281681, 38.2321952 ], [ 21.7279155, 38.2321429 ], [ 21.7279168, 38.2320954 ], [ 21.727651, 38.2320439 ], [ 21.7276121, 38.2320627 ], [ 21.7276674, 38.2325984 ] ] ] ] } },
{ "type": "Feature", "properties": { "full_id": "w791178932", "osm_id": "791178932", "osm_type": "way", "shop": "supermarket", "website": "https://www.ab.gr/storedetails/patra-8-kalavryton", "phone": "+302610337290", "opening_hours:covid19": "Mo-Fr 07:00-21:00; Sa 07:00-20:00", "brand:wikipedia": "el:Άλφα Βήτα Βασιλόπουλος", "branch": "ΠΑΤΡΑ 8 ΚΑΛΑΒΡΥΤΩΝ", "name:en": "AB Vassilopoulos", "name:el": "ΑΒ Βασιλόπουλος", "brand:en": "AB Vassilopoulos", "brand:el": "ΑΒ Βασιλόπουλος", "payment:debit_cards": null, "payment:credit_cards": null, "payment:cash": null, "operator": null, "opening_hours": "Mo-Fr 08:00-21:00; Sa 08:00-20:00", "brand:wikidata": "Q4721807", "brand": "ΑΒ Βασιλόπουλος", "addr:street": "Καλαβρύτων", "addr:postcode": "26334", "addr:housenumber": "Ο.Τ. 868Α", "addr:city": "ΠΑΤΡΑ", "name": "ΑΒ Βασιλόπουλος", "building": "yes" }, "geometry": { "type": "MultiPolygon", "coordinates": [ [ [ [ 21.7474699, 38.2318199 ], [ 21.7474638, 38.2314989 ], [ 21.7472513, 38.2315028 ], [ 21.7469488, 38.2315088 ], [ 21.7469476, 38.2317809 ], [ 21.7470217, 38.2318213 ], [ 21.7474699, 38.2318199 ] ] ] ] } },
{ "type": "Feature", "properties": { "full_id": "w791180067", "osm_id": "791180067", "osm_type": "way", "shop": "supermarket", "website": "https://www.ab.gr/storedetails/patra-2-ethniki-odos", "phone": "+302610451532 +302610453111 +302610453143", "opening_hours:covid19": "Mo-Fr 07:00-21:00; Sa 07:00-20:00", "brand:wikipedia": "el:Άλφα Βήτα Βασιλόπουλος", "branch": "ΠΑΤΡΑ 2 ΕΘΝΙΚΗ ΟΔΟΣ", "name:en": "AB Vassilopoulos", "name:el": "ΑΒ Βασιλόπουλος", "brand:en": "AB Vassilopoulos", "brand:el": "ΑΒ Βασιλόπουλος", "payment:debit_cards": null, "payment:credit_cards": null, "payment:cash": null, "operator": null, "opening_hours": "Mo-Fr 08:00-21:00; Sa 08:00-20:00", "brand:wikidata": "Q4721807", "brand": "ΑΒ Βασιλόπουλος", "addr:street": "Εθν. Οδός Πατρών - Αθηνών & Αμερικής", "addr:postcode": "26500", "addr:housenumber": null, "addr:city": "Πάτρα", "name": "ΑΒ Βασιλόπουλος", "building": "yes" }, "geometry": { "type": "MultiPolygon", "coordinates": [ [ [ [ 21.7494531, 38.2614183 ], [ 21.7496043, 38.2616097 ], [ 21.7498265, 38.2615076 ], [ 21.7496685, 38.2613164 ], [ 21.7494531, 38.2614183 ] ] ] ] } },
{ "type": "Feature", "properties": { "full_id": "w905212351", "osm_id": "905212351", "osm_type": "way", "shop": "supermarket", "website": null, "phone": null, "opening_hours:covid19": null, "brand:wikipedia": "el:Γαλαξίας (σούπερ μάρκετ)", "branch": null, "name:en": "Galaxias", "name:el": "Γαλαξίας", "brand:en": "Galaxias", "brand:el": "Γαλαξίας", "payment:debit_cards": null, "payment:credit_cards": null, "payment:cash": null, "operator": null, "opening_hours": null, "brand:wikidata": "Q5518063", "brand": "Γαλαξίας", "addr:street": null, "addr:postcode": null, "addr:housenumber": null, "addr:city": null, "name": "Γαλαξίας", "building": "yes" }, "geometry": { "type": "MultiPolygon", "coordinates": [ [ [ [ 21.7447733, 38.2595761 ], [ 21.7448485, 38.2597418 ], [ 21.745544, 38.2595474 ], [ 21.7454688, 38.2593815 ], [ 21.7447733, 38.2595761 ] ] ] ] } }
]
}
